<?xml version="1.0" encoding="UTF-8"?>
<kml xmlns="http://www.opengis.net/kml/2.2" xmlns:gx="http://www.google.com/kml/ext/2.2" xmlns:kml="http://www.opengis.net/kml/2.2" xmlns:atom="http://www.w3.org/2005/Atom">
<Document>
	<name>Ganpat Sambhajirao Shinde.kml</name>
	<Style id="default">
	</Style>
	<StyleMap id="default0">
		<Pair>
			<key>normal</key>
			<styleUrl>#default</styleUrl>
		</Pair>
		<Pair>
			<key>highlight</key>
			<styleUrl>#hl</styleUrl>
		</Pair>
	</StyleMap>
	<Style id="hl">
		<IconStyle>
			<scale>1.2</scale>
		</IconStyle>
	</Style>
	<Placemark>
		<name>Ganpat Sambhajirao Shinde</name>
		<styleUrl>#default0</styleUrl>
		<Polygon>
			<outerBoundaryIs>
				<LinearRing>
					<coordinates>
						76.41874875533429,18.27733707943132,0 76.41932938873788,18.27730553274539,0 76.41932072880276,18.279004452513,0 76.41880326235146,18.27894665378191,0 76.41874875533429,18.27733707943132,0 
					</coordinates>
				</LinearRing>
			</outerBoundaryIs>
		</Polygon>
		<atom:link rel="app" href="https://www.google.com/earth/about/versions/#earth-pro" title="Google Earth Pro 7.3.7.1155"></atom:link>
	</Placemark>
</Document>
</kml>
