<?xml version="1.0" encoding="UTF-8"?>
<kml xmlns="http://www.opengis.net/kml/2.2" xmlns:gx="http://www.google.com/kml/ext/2.2" xmlns:kml="http://www.opengis.net/kml/2.2" xmlns:atom="http://www.w3.org/2005/Atom">
<Document>
	<name>135_Sachin_Ghanshyam_Salunkhe.kml</name>
	<atom:link rel="app" href="https://www.google.com/earth/about/versions/#earth-pro" title="Google Earth Pro 7.3.7.1155"></atom:link>
	<StyleMap id="default">
		<Pair>
			<key>normal</key>
			<styleUrl>#default0</styleUrl>
		</Pair>
		<Pair>
			<key>highlight</key>
			<styleUrl>#hl</styleUrl>
		</Pair>
	</StyleMap>
	<Style id="default0">
	</Style>
	<Style id="hl">
		<IconStyle>
			<scale>1.2</scale>
		</IconStyle>
	</Style>
	<Placemark>
		<name>Untitled Polygon</name>
		<styleUrl>#default</styleUrl>
		<Polygon>
			<tessellate>1</tessellate>
			<outerBoundaryIs>
				<LinearRing>
					<coordinates>
						74.14693001279387,17.77925966465902,0 74.14773815301119,17.77908159809762,0 74.14780984191485,17.77940875000666,0 74.14701310039366,17.77966836321995,0 74.14693001279387,17.77925966465902,0 
					</coordinates>
				</LinearRing>
			</outerBoundaryIs>
		</Polygon>
	</Placemark>
</Document>
</kml>
