<?xml version="1.0" encoding="UTF-8"?>
<kml xmlns="http://www.opengis.net/kml/2.2" xmlns:gx="http://www.google.com/kml/ext/2.2" xmlns:kml="http://www.opengis.net/kml/2.2" xmlns:atom="http://www.w3.org/2005/Atom">
<Document>
	<name>Bharat Dattatray Bhosale</name>
	<atom:link rel="app" href="https://www.google.com/earth/about/versions/#earth-pro" title="Google Earth Pro 7.3.7.1155"></atom:link>
	<Placemark>
		<name>Bharat Dattatray Bhosale</name>
		<Polygon>
			<outerBoundaryIs>
				<LinearRing>
					<coordinates>
						75.220225,17.937005,0 75.22145,17.937174,0 75.22141499999999,17.937551,0 75.220145,17.93736,0 75.220225,17.937005,0 
					</coordinates>
				</LinearRing>
			</outerBoundaryIs>
		</Polygon>
	</Placemark>
</Document>
</kml>
