<?xml version="1.0" encoding="UTF-8"?>
<kml xmlns="http://www.opengis.net/kml/2.2" xmlns:gx="http://www.google.com/kml/ext/2.2" xmlns:kml="http://www.opengis.net/kml/2.2" xmlns:atom="http://www.w3.org/2005/Atom">
<Document>
	<name>Mahendra Tukaram Thorat.kml</name>
	<Style id="default">
	</Style>
	<StyleMap id="default0">
		<Pair>
			<key>normal</key>
			<styleUrl>#default</styleUrl>
		</Pair>
		<Pair>
			<key>highlight</key>
			<styleUrl>#hl</styleUrl>
		</Pair>
	</StyleMap>
	<Style id="hl">
		<IconStyle>
			<scale>1.2</scale>
		</IconStyle>
	</Style>
	<Placemark>
		<name>Mahendra Tukaram Thorat</name>
		<styleUrl>#default0</styleUrl>
		<Polygon>
			<outerBoundaryIs>
				<LinearRing>
					<coordinates>
						74.3522552836815,18.51375581949943,0 74.35183680474428,18.51388010514922,0 74.3516,18.5131,0 74.35195736976215,18.51305040798913,0 74.35254008485451,18.51295174636112,0 74.35269808003468,18.51364289376206,0 74.3522552836815,18.51375581949943,0 
					</coordinates>
				</LinearRing>
			</outerBoundaryIs>
		</Polygon>
		<atom:link rel="app" href="https://www.google.com/earth/about/versions/#earth-pro" title="Google Earth Pro 7.3.7.1155"></atom:link>
	</Placemark>
</Document>
</kml>
